start=new Date('2022-11-07T00:00:00.000Z').valueOf();
sats=[{"MEAN_ANOMALY":"300.1281","COUNTRY_CODE":"US","REF_FRAME":"TEME","TLE_LINE1":"1 51957U 22025B   22310.44931324 -.00000427  00000-0 -87408-5 0  9993","FILE":"3647066","OBJECT_NAME":"STARLINK-3694","MEAN_MOTION_DDOT":"0.0000000000000","SEMIMAJOR_AXIS":"6917.876","CENTER_NAME":"EARTH","OBJECT_ID":"2022-025B","BSTAR":"-0.00000874080000","REV_AT_EPOCH":"3713","GP_ID":"217057009","MEAN_MOTION":"15.08841502","MEAN_ELEMENT_THEORY":"SGP4","PERIAPSIS":"538.737","ARG_OF_PERICENTER":"59.9855","CLASSIFICATION_TYPE":"U","EPHEMERIS_TYPE":"0","INCLINATION":"53.2178","SITE":"AFETR","DECAY_DATE":null,"MEAN_MOTION_DOT":"-0.00000427","APOAPSIS":"540.745","TIME_SYSTEM":"UTC","LAUNCH_DATE":"2022-03-09","RA_OF_ASC_NODE":"102.5016","TLE_LINE2":"2 51957  53.2178 102.5016 0001451  59.9855 300.1281 15.08841502 37135","OBJECT_TYPE":"PAYLOAD","ELEMENT_SET_NO":"999","ECCENTRICITY":"0.00014510","NORAD_CAT_ID":"51957","RCS_SIZE":"LARGE","PERIOD":"95.437","EPOCH":"2022-11-06T10:47:00.663936"},{"TIME_SYSTEM":"UTC","APOAPSIS":"540.761","TLE_LINE2":"2 51958  53.2150 101.2550 0001486  54.1402 305.9728 15.08843980 38264","RA_OF_ASC_NODE":"101.2550","LAUNCH_DATE":"2022-03-09","ECCENTRICITY":"0.00014860","NORAD_CAT_ID":"51958","ELEMENT_SET_NO":"999","OBJECT_TYPE":"PAYLOAD","PERIOD":"95.437","EPOCH":"2022-11-06T17:29:44.537280","RCS_SIZE":"MEDIUM","MEAN_ELEMENT_THEORY":"SGP4","CLASSIFICATION_TYPE":"U","ARG_OF_PERICENTER":"54.1402","PERIAPSIS":"538.705","SITE":"AFETR","INCLINATION":"53.2150","EPHEMERIS_TYPE":"0","MEAN_MOTION_DOT":"0.00002727","DECAY_DATE":null,"MEAN_MOTION_DDOT":"0.0000000000000","SEMIMAJOR_AXIS":"6917.868","BSTAR":"0.00018932000000","REV_AT_EPOCH":"3826","OBJECT_ID":"2022-025C","CENTER_NAME":"EARTH","MEAN_MOTION":"15.08843980","GP_ID":"217065723","MEAN_ANOMALY":"305.9728","COUNTRY_CODE":"US","REF_FRAME":"TEME","TLE_LINE1":"1 51958U 22025C   22310.72898770  .00002727  00000-0  18932-3 0  9999","FILE":"3647312","OBJECT_NAME":"STARLINK-3692"},{"TLE_LINE1":"1 51959U 22025D   22310.85043562  .00000113  00000-0  25225-4 0  9996","FILE":"3647312","REF_FRAME":"TEME","OBJECT_NAME":"STARLINK-3704","MEAN_ANOMALY":"315.3779","COUNTRY_CODE":"US","MEAN_MOTION":"15.08834386","GP_ID":"217065815","MEAN_MOTION_DDOT":"0.0000000000000","SEMIMAJOR_AXIS":"6917.898","REV_AT_EPOCH":"3828","BSTAR":"0.00002522500000","OBJECT_ID":"2022-025D","CENTER_NAME":"EARTH","SITE":"AFETR","INCLINATION":"53.2165","EPHEMERIS_TYPE":"0","MEAN_MOTION_DOT":"0.00000113","DECAY_DATE":null,"MEAN_ELEMENT_THEORY":"SGP4","CLASSIFICATION_TYPE":"U","ARG_OF_PERICENTER":"44.7360","PERIAPSIS":"538.498","ECCENTRICITY":"0.00018280","NORAD_CAT_ID":"51959","ELEMENT_SET_NO":"999","OBJECT_TYPE":"PAYLOAD","PERIOD":"95.438","EPOCH":"2022-11-06T20:24:37.637568","RCS_SIZE":"LARGE","TIME_SYSTEM":"UTC","APOAPSIS":"541.027","TLE_LINE2":"2 51959  53.2165 100.6949 0001828  44.7360 315.3779 15.08834386 38287","RA_OF_ASC_NODE":"100.6949","LAUNCH_DATE":"2022-03-09"},{"MEAN_ANOMALY":"307.8721","COUNTRY_CODE":"US","REF_FRAME":"TEME","TLE_LINE1":"1 51960U 22025E   22310.44562960  .00010749  00000-0  69226-3 0  9995","FILE":"3647066","OBJECT_NAME":"STARLINK-3691","SEMIMAJOR_AXIS":"6917.850","MEAN_MOTION_DDOT":"0.0000000000000","BSTAR":"0.00069226000000","REV_AT_EPOCH":"3713","OBJECT_ID":"2022-025E","CENTER_NAME":"EARTH","MEAN_MOTION":"15.08849965","GP_ID":"217057259","MEAN_ELEMENT_THEORY":"SGP4","CLASSIFICATION_TYPE":"U","ARG_OF_PERICENTER":"52.2439","PERIAPSIS":"538.431","SITE":"AFETR","INCLINATION":"53.2167","EPHEMERIS_TYPE":"0","MEAN_MOTION_DOT":"0.00010749","DECAY_DATE":null,"TIME_SYSTEM":"UTC","APOAPSIS":"540.999","TLE_LINE2":"2 51960  53.2167 102.5158 0001856  52.2439 307.8721 15.08849965 37131","RA_OF_ASC_NODE":"102.5158","LAUNCH_DATE":"2022-03-09","ELEMENT_SET_NO":"999","ECCENTRICITY":"0.00018560","NORAD_CAT_ID":"51960","OBJECT_TYPE":"PAYLOAD","EPOCH":"2022-11-06T10:41:42.397440","PERIOD":"95.437","RCS_SIZE":"LARGE"},{"CLASSIFICATION_TYPE":"U","ARG_OF_PERICENTER":"57.3544","PERIAPSIS":"538.624","MEAN_ELEMENT_THEORY":"SGP4","MEAN_MOTION_DOT":"-0.00005064","DECAY_DATE":null,"SITE":"AFETR","INCLINATION":"53.2170","EPHEMERIS_TYPE":"0","TLE_LINE2":"2 51961  53.2170 102.4601 0001734  57.3544 302.7615 15.08814431 37132","RA_OF_ASC_NODE":"102.4601","LAUNCH_DATE":"2022-03-09","TIME_SYSTEM":"UTC","APOAPSIS":"541.023","PERIOD":"95.439","EPOCH":"2022-11-06T11:02:56.701536","RCS_SIZE":"LARGE","ELEMENT_SET_NO":"999","ECCENTRICITY":"0.00017340","NORAD_CAT_ID":"51961","OBJECT_TYPE":"PAYLOAD","COUNTRY_CODE":"US","MEAN_ANOMALY":"302.7615","OBJECT_NAME":"STARLINK-3689","TLE_LINE1":"1 51961U 22025F   22310.46037849 -.00005064  00000-0 -30052-3 0  9992","REF_FRAME":"TEME","FILE":"3647066","BSTAR":"-0.00030052000000","REV_AT_EPOCH":"3713","OBJECT_ID":"2022-025F","CENTER_NAME":"EARTH","MEAN_MOTION_DDOT":"0.0000000000000","SEMIMAJOR_AXIS":"6917.959","MEAN_MOTION":"15.08814431","GP_ID":"217057509"},{"COUNTRY_CODE":"US","MEAN_ANOMALY":"317.7726","OBJECT_NAME":"STARLINK-3697","TLE_LINE1":"1 51962U 22025G   22310.37299814 -.00001382  00000-0 -68747-4 0  9997","FILE":"3647066","REF_FRAME":"TEME","CENTER_NAME":"EARTH","BSTAR":"-0.00006874700000","REV_AT_EPOCH":"3712","OBJECT_ID":"2022-025G","SEMIMAJOR_AXIS":"6917.913","MEAN_MOTION_DDOT":"0.0000000000000","MEAN_MOTION":"15.08829441","GP_ID":"217057761","PERIAPSIS":"538.374","CLASSIFICATION_TYPE":"U","ARG_OF_PERICENTER":"42.3423","MEAN_ELEMENT_THEORY":"SGP4","DECAY_DATE":null,"MEAN_MOTION_DOT":"-0.00001382","INCLINATION":"53.2200","EPHEMERIS_TYPE":"0","SITE":"AFETR","LAUNCH_DATE":"2022-03-09","TLE_LINE2":"2 51962  53.2200 102.8571 0002029  42.3423 317.7726 15.08829441 37120","RA_OF_ASC_NODE":"102.8571","APOAPSIS":"541.181","TIME_SYSTEM":"UTC","RCS_SIZE":"LARGE","EPOCH":"2022-11-06T08:57:07.039296","PERIOD":"95.438","OBJECT_TYPE":"PAYLOAD","NORAD_CAT_ID":"51962","ECCENTRICITY":"0.00020290","ELEMENT_SET_NO":"999"},{"OBJECT_NAME":"STARLINK-3675","REF_FRAME":"TEME","TLE_LINE1":"1 51963U 22025H   22310.78787069  .00000126  00000-0  26018-4 0  9995","FILE":"3647190","COUNTRY_CODE":"US","MEAN_ANOMALY":"308.4711","MEAN_MOTION":"15.08845731","GP_ID":"217062688","CENTER_NAME":"EARTH","REV_AT_EPOCH":"3827","BSTAR":"0.00002601800000","OBJECT_ID":"2022-025H","MEAN_MOTION_DDOT":"0.0000000000000","SEMIMAJOR_AXIS":"6917.863","DECAY_DATE":null,"MEAN_MOTION_DOT":"0.00000126","INCLINATION":"53.2163","EPHEMERIS_TYPE":"0","SITE":"AFETR","PERIAPSIS":"538.533","CLASSIFICATION_TYPE":"U","ARG_OF_PERICENTER":"51.6436","MEAN_ELEMENT_THEORY":"SGP4","RCS_SIZE":"LARGE","PERIOD":"95.437","EPOCH":"2022-11-06T18:54:32.027616","OBJECT_TYPE":"PAYLOAD","ECCENTRICITY":"0.00017270","NORAD_CAT_ID":"51963","ELEMENT_SET_NO":"999","LAUNCH_DATE":"2022-03-09","TLE_LINE2":"2 51963  53.2163 100.9923 0001727  51.6436 308.4711 15.08845731 38278","RA_OF_ASC_NODE":"100.9923","APOAPSIS":"540.923","TIME_SYSTEM":"UTC"},{"OBJECT_NAME":"STARLINK-3690","TLE_LINE1":"1 51964U 22025J   22310.82836106  .00000905  00000-0  74988-4 0  9992","REF_FRAME":"TEME","FILE":"3647313","COUNTRY_CODE":"US","MEAN_ANOMALY":"309.0926","MEAN_MOTION":"15.08831582","GP_ID":"217065741","BSTAR":"0.00007498800000","REV_AT_EPOCH":"3828","OBJECT_ID":"2022-025J","CENTER_NAME":"EARTH","SEMIMAJOR_AXIS":"6917.906","MEAN_MOTION_DDOT":"0.0000000000000","MEAN_MOTION_DOT":"0.00000905","DECAY_DATE":null,"SITE":"AFETR","INCLINATION":"53.2209","EPHEMERIS_TYPE":"0","CLASSIFICATION_TYPE":"U","ARG_OF_PERICENTER":"51.0249","PERIAPSIS":"538.347","MEAN_ELEMENT_THEORY":"SGP4","PERIOD":"95.438","EPOCH":"2022-11-06T19:52:50.395584","RCS_SIZE":"LARGE","ECCENTRICITY":"0.00020580","NORAD_CAT_ID":"51964","ELEMENT_SET_NO":"999","OBJECT_TYPE":"PAYLOAD","TLE_LINE2":"2 51964  53.2209 100.8132 0002058  51.0249 309.0926 15.08831582 38280","RA_OF_ASC_NODE":"100.8132","LAUNCH_DATE":"2022-03-09","TIME_SYSTEM":"UTC","APOAPSIS":"541.195"},{"TLE_LINE2":"2 51965  53.2194 101.3587 0002353  38.0780 322.0378 15.08848463 38267","RA_OF_ASC_NODE":"101.3587","LAUNCH_DATE":"2022-03-09","TIME_SYSTEM":"UTC","APOAPSIS":"541.347","PERIOD":"95.437","EPOCH":"2022-11-06T16:57:56.638656","RCS_SIZE":"MEDIUM","NORAD_CAT_ID":"51965","ELEMENT_SET_NO":"999","ECCENTRICITY":"0.00023530","OBJECT_TYPE":"PAYLOAD","CLASSIFICATION_TYPE":"U","ARG_OF_PERICENTER":"38.0780","PERIAPSIS":"538.092","MEAN_ELEMENT_THEORY":"SGP4","MEAN_MOTION_DOT":"-0.00002658","DECAY_DATE":null,"SITE":"AFETR","INCLINATION":"53.2194","EPHEMERIS_TYPE":"0","REV_AT_EPOCH":"3826","BSTAR":"-0.00014890000000","OBJECT_ID":"2022-025K","CENTER_NAME":"EARTH","SEMIMAJOR_AXIS":"6917.855","MEAN_MOTION_DDOT":"0.0000000000000","MEAN_MOTION":"15.08848463","GP_ID":"217065822","COUNTRY_CODE":"US","MEAN_ANOMALY":"322.0378","OBJECT_NAME":"STARLINK-3696","TLE_LINE1":"1 51965U 22025K   22310.70690554 -.00002658  00000-0 -14890-3 0  9999","REF_FRAME":"TEME","FILE":"3647313"},{"MEAN_ELEMENT_THEORY":"SGP4","PERIAPSIS":"538.426","CLASSIFICATION_TYPE":"U","ARG_OF_PERICENTER":"54.6127","INCLINATION":"53.2177","EPHEMERIS_TYPE":"0","SITE":"AFETR","DECAY_DATE":null,"MEAN_MOTION_DOT":"0.00003850","APOAPSIS":"541.059","TIME_SYSTEM":"UTC","LAUNCH_DATE":"2022-03-09","TLE_LINE2":"2 51966  53.2177 100.5416 0001903  54.6127 305.5042 15.08840911 38297","RA_OF_ASC_NODE":"100.5416","OBJECT_TYPE":"PAYLOAD","NORAD_CAT_ID":"51966","ECCENTRICITY":"0.00019030","ELEMENT_SET_NO":"999","RCS_SIZE":"LARGE","PERIOD":"95.437","EPOCH":"2022-11-06T21:17:37.917024","MEAN_ANOMALY":"305.5042","COUNTRY_CODE":"US","TLE_LINE1":"1 51966U 22025L   22310.88724441  .00003850  00000-0  25983-3 0  9990","FILE":"3647313","REF_FRAME":"TEME","OBJECT_NAME":"STARLINK-3699","MEAN_MOTION_DDOT":"0.0000000000000","SEMIMAJOR_AXIS":"6917.878","CENTER_NAME":"EARTH","BSTAR":"0.00025983000000","REV_AT_EPOCH":"3829","OBJECT_ID":"2022-025L","MEAN_MOTION":"15.08840911","GP_ID":"217065740"}];
